{
    "links": {
        "self": "http://www.neowsapp.com/rest/v1/neo/3986805?api_key=iIulBulltgU6a56xZRHN4H3l9WmuAYTsLGpBGhQ2"
    },
    "id": "3986805",
    "neo_reference_id": "3986805",
    "name": "(2020 BC2)",
    "designation": "2020 BC2",
    "nasa_jpl_url": "http://ssd.jpl.nasa.gov/sbdb.cgi?sstr=3986805",
    "absolute_magnitude_h": 22.094,
    "estimated_diameter": {
        "kilometers": {
            "estimated_diameter_min": 0.1013339511,
            "estimated_diameter_max": 0.2265896031
        },
        "meters": {
            "estimated_diameter_min": 101.3339511235,
            "estimated_diameter_max": 226.5896031408
        },
        "miles": {
            "estimated_diameter_min": 0.0629659785,
            "estimated_diameter_max": 0.1407962083
        },
        "feet": {
            "estimated_diameter_min": 332.4604802041,
            "estimated_diameter_max": 743.4042335686
        }
    },
    "is_potentially_hazardous_asteroid": false,
    "close_approach_data": [
        {
            "close_approach_date": "1951-08-09",
            "close_approach_date_full": "1951-Aug-09 01:59",
            "epoch_date_close_approach": -580600860000,
            "relative_velocity": {
                "kilometers_per_second": "15.7931240563",
                "kilometers_per_hour": "56855.2466025346",
                "miles_per_hour": "35327.6392014471"
            },
            "miss_distance": {
                "astronomical": "0.2404689799",
                "lunar": "93.5424331811",
                "kilometers": "35973647.194112813",
                "miles": "22352987.8446022994"
            },
            "orbiting_body": "Earth"
        },
        {
            "close_approach_date": "2020-02-19",
            "close_approach_date_full": "2020-Feb-19 10:26",
            "epoch_date_close_approach": 1582107960000,
            "relative_velocity": {
                "kilometers_per_second": "14.2551305864",
                "kilometers_per_hour": "51318.4701110616",
                "miles_per_hour": "31887.3016087316"
            },
            "miss_distance": {
                "astronomical": "0.2264788675",
                "lunar": "88.1002794575",
                "kilometers": "33880756.178012225",
                "miles": "21052525.670429705"
            },
            "orbiting_body": "Earth"
        },
        {
            "close_approach_date": "2080-08-22",
            "close_approach_date_full": "2080-Aug-22 14:40",
            "epoch_date_close_approach": 3491563200000,
            "relative_velocity": {
                "kilometers_per_second": "21.7519439268",
                "kilometers_per_hour": "78306.9981366377",
                "miles_per_hour": "48656.9233699569"
            },
            "miss_distance": {
                "astronomical": "0.3926887872",
                "lunar": "152.7559382208",
                "kilometers": "58745406.138003264",
                "miles": "36502702.7213384832"
            },
            "orbiting_body": "Earth"
        }
    ],
    "orbital_data": {
        "orbit_id": "3",
        "orbit_determination_date": "2020-02-13 05:12:17",
        "first_observation_date": "2020-01-18",
        "last_observation_date": "2020-01-31",
        "data_arc_in_days": 13,
        "observations_used": 26,
        "orbit_uncertainty": "8",
        "minimum_orbit_intersection": ".199763",
        "jupiter_tisserand_invariant": "4.978",
        "epoch_osculation": "2458876.5",
        "eccentricity": ".4036649658235054",
        "semi_major_axis": "1.270765788377656",
        "inclination": "12.36529274745285",
        "ascending_node_longitude": "61.37302947910324",
        "orbital_period": "523.2348931012061",
        "perihelion_distance": ".7578021598425099",
        "perihelion_argument": "170.1552984873756",
        "aphelion_distance": "1.783729416912803",
        "perihelion_time": "2458950.998694633552",
        "mean_anomaly": "308.7428487249393",
        "mean_motion": ".6880275087662538",
        "equinox": "J2000",
        "orbit_class": {
            "orbit_class_type": "APO",
            "orbit_class_description": "Near-Earth asteroid orbits which cross the Earth’s orbit similar to that of 1862 Apollo",
            "orbit_class_range": "a (semi-major axis) > 1.0 AU; q (perihelion) < 1.017 AU"
        }
    },
    "is_sentry_object": false
}